GLOBALSTAR M035         
1 25851U 99037A   25076.92169839 -.00000109  00000+0 -17066-2 0  9999
2 25851  51.9926 258.4985 0013734 189.6878 320.3908 11.04537329 86173
GLOBALSTAR M032         
1 25852U 99037B   25076.32880616 -.00000040  00000+0  84808-3 0  9999
2 25852  51.9934  91.3506 0011396  12.8308 347.2780 11.19063107124503
GLOBALSTAR M051         
1 25853U 99037C   25076.95403763 -.00000064  00000+0  19087-3 0  9996
2 25853  51.9773 260.9836 0001611  75.3170 284.7819 11.42205022121982
GLOBALSTAR M030         
1 25854U 99037D   25077.22260807 -.00000080  00000+0 -11608-3 0  9998
2 25854  51.9870  72.2200 0003752 245.8518 114.1907 11.55100331139634
GLOBALSTAR M048         
1 25872U 99041A   25077.49532725 -.00000046  00000+0  65793-3 0  9998
2 25872  51.9355 191.2026 0013078  31.4337  49.6285 11.33855209114574
GLOBALSTAR M026         
1 25873U 99041B   25076.83704372  .00000029  00000+0  34379-2 0  9990
2 25873  52.0055  17.6042 0001829 101.5281 287.4526 11.06831752138372
GLOBALSTAR M043         
1 25874U 99041C   25076.88308583 -.00000026  00000+0  12650-2 0  9996
2 25874  51.9403 296.6669 0013704 153.6039 219.6219 11.25692521112598
GLOBALSTAR M028         
1 25875U 99041D   25076.79946951 -.00000101  00000+0 -70511-5 0  9992
2 25875  51.9610 105.5655 0063230 232.7719 126.7361 12.50579190178745
